ONEWEB-0379             
1 49305U 21090AC  26011.61580990  .00000110  00000+0  26337-3 0  9996
2 49305  87.9022 320.9067 0001845  75.7739 284.3596 13.14503641206995
ONEWEB-0380             
1 49306U 21090AD  26011.62345853  .00000030  00000+0  42102-4 0  9995
2 49306  87.9230 336.1285 0001910  87.3800 272.7551 13.19725331205773
ONEWEB-0381             
1 49307U 21090AE  26011.34174711 -.00000344  00000+0 -87682-3 0  9999
2 49307  87.9228 305.7262 0001946  79.6836 280.4516 13.20771995209129
ONEWEB-0382             
1 49308U 21090AF  26011.55640597 -.00000023  00000+0 -88110-4 0  9995
2 49308  87.9231 305.6798 0002045  75.7353 284.4008 13.20771417209140
ONEWEB-0383             
1 49309U 21090AG  26011.60947234  .00000240  00000+0  61264-3 0  9999
2 49309  87.9023 320.8932 0001910  74.7424 285.3917 13.14502952207020
ONEWEB-0384             
1 49310U 21090AH  26011.54917249 -.00000042  00000+0 -13422-3 0  9992
2 49310  87.9240 305.7198 0002275  72.5503 287.5879 13.20802123209155
ONEWEB-0385             
1 49311U 21090AJ  26011.32123111 -.00001107  00000+0 -27549-2 0  9993
2 49311  87.9233 305.7308 0001840  77.1901 282.9438 13.20776191209099
ONEWEB-0386             
1 49312U 21090AK  26011.56588042 -.00000023  00000+0 -88350-4 0  9993
2 49312  87.9229 305.6669 0001994  74.2397 285.8956 13.20772888209143
